{
  "norad_id": 56108,
  "name": "STARLINK-6081",
  "history": [
    {
      "epoch": "2026-03-28T20:00:01.999872Z",
      "apogee_km": 498.8444771640443,
      "perigee_km": 496.19171191546957,
      "latitude_deg": -29.827853377479002,
      "longitude_deg": -110.77754327108565,
      "height_km": 504.485493672107,
      "semi_major_axis_km": 6875.655094539757,
      "eccentricity": 0.00019291,
      "inclination_deg": 43.0018,
      "raan_deg": 53.171,
      "arg_perigee_deg": 271.563,
      "mean_anomaly_deg": 41.9188,
      "mean_motion_rev_day": 15.22760622
    },
    {
      "epoch": "2026-03-29T04:00:01.999584Z",
      "apogee_km": 497.3947733943842,
      "perigee_km": 494.57500859469747,
      "latitude_deg": -11.427566727400178,
      "longitude_deg": 152.27047500965253,
      "height_km": 497.0342071303147,
      "semi_major_axis_km": 6874.12189099454,
      "eccentricity": 0.0002051,
      "inclination_deg": 43.0011,
      "raan_deg": 51.3039,
      "arg_perigee_deg": 293.4057,
      "mean_anomaly_deg": 49.8685,
      "mean_motion_rev_day": 15.23270105
    },
    {
      "epoch": "2026-03-30T04:00:01.999584Z",
      "apogee_km": 492.43974152705687,
      "perigee_km": 490.4640477609564,
      "latitude_deg": 41.671337893719596,
      "longitude_deg": -130.2581090733666,
      "height_km": 495.2635092412385,
      "semi_major_axis_km": 6869.588894644006,
      "eccentricity": 0.0001438,
      "inclination_deg": 43.0067,
      "raan_deg": 45.6909,
      "arg_perigee_deg": 262.0089,
      "mean_anomaly_deg": 174.3481,
      "mean_motion_rev_day": 15.24778081
    },
    {
      "epoch": "2026-03-30T06:00:02.000160Z",
      "apogee_km": 492.1235448305724,
      "perigee_km": 490.4184203811292,
      "latitude_deg": 3.8660331957813185,
      "longitude_deg": -56.56571030590543,
      "height_km": 490.25188091680116,
      "semi_major_axis_km": 6869.4079826058505,
      "eccentricity": 0.00012411,
      "inclination_deg": 43.0011,
      "raan_deg": 45.2197,
      "arg_perigee_deg": 238.1118,
      "mean_anomaly_deg": 296.1765,
      "mean_motion_rev_day": 15.24838316
    },
    {
      "epoch": "2026-03-30T14:00:03.000384Z",
      "apogee_km": 489.48500261894515,
      "perigee_km": 487.6827630560347,
      "latitude_deg": -17.89149079631848,
      "longitude_deg": -154.50403705564813,
      "height_km": 491.7369066988562,
      "semi_major_axis_km": 6866.72088283749,
      "eccentricity": 0.00013123,
      "inclination_deg": 43.0007,
      "raan_deg": 43.3442,
      "arg_perigee_deg": 253.7432,
      "mean_anomaly_deg": 312.8103,
      "mean_motion_rev_day": 15.25733458
    },
    {
      "epoch": "2026-03-30T22:00:00.999936Z",
      "apogee_km": 489.1636464379908,
      "perigee_km": 487.50470700169535,
      "latitude_deg": -36.148820828484126,
      "longitude_deg": 114.33090541654447,
      "height_km": 497.9733360255554,
      "semi_major_axis_km": 6866.471176719843,
      "eccentricity": 0.0001208,
      "inclination_deg": 43.0012,
      "raan_deg": 41.4645,
      "arg_perigee_deg": 242.6633,
      "mean_anomaly_deg": 356.8024,
      "mean_motion_rev_day": 15.25816686
    },
    {
      "epoch": "2026-03-31T20:00:01.999008Z",
      "apogee_km": 489.2031543555304,
      "perigee_km": 487.01282220426856,
      "latitude_deg": -36.725316556768355,
      "longitude_deg": 139.80516626977422,
      "height_km": 497.75182494485045,
      "semi_major_axis_km": 6866.244988279899,
      "eccentricity": 0.0001595,
      "inclination_deg": 43.001,
      "raan_deg": 36.305,
      "arg_perigee_deg": 255.705,
      "mean_anomaly_deg": 345.136,
      "mean_motion_rev_day": 15.25892082
    },
    {
      "epoch": "2026-04-01T20:00:01.999008Z",
      "apogee_km": 489.18914870707704,
      "perigee_km": 486.99882102290485,
      "latitude_deg": -13.252329865676117,
      "longitude_deg": -114.07244094691062,
      "height_km": 490.49339591122987,
      "semi_major_axis_km": 6866.23098486499,
      "eccentricity": 0.0001595,
      "inclination_deg": 43.0016,
      "raan_deg": 30.672,
      "arg_perigee_deg": 252.0939,
      "mean_anomaly_deg": 88.4422,
      "mean_motion_rev_day": 15.2589675
    },
    {
      "epoch": "2026-04-02T20:00:01.999008Z",
      "apogee_km": 489.1180094894371,
      "perigee_km": 486.9771331401007,
      "latitude_deg": 42.39304346025412,
      "longitude_deg": -29.364961347111947,
      "height_km": 492.0956980835887,
      "semi_major_axis_km": 6866.184571314769,
      "eccentricity": 0.0001559,
      "inclination_deg": 43.0019,
      "raan_deg": 25.0394,
      "arg_perigee_deg": 253.6916,
      "mean_anomaly_deg": 186.5726,
      "mean_motion_rev_day": 15.25912222
    },
    {
      "epoch": "2026-04-02T22:00:01.999584Z",
      "apogee_km": 489.17810139053563,
      "perigee_km": 487.0247117014742,
      "latitude_deg": 0.9116823146743804,
      "longitude_deg": 42.33155715890017,
      "height_km": 487.6230690888193,
      "semi_major_axis_km": 6866.238406546005,
      "eccentricity": 0.00015681,
      "inclination_deg": 43.0019,
      "raan_deg": 24.5707,
      "arg_perigee_deg": 261.098,
      "mean_anomaly_deg": 277.5059,
      "mean_motion_rev_day": 15.25894276
    },
    {
      "epoch": "2026-04-03T19:12:23.761728Z",
      "apogee_km": 488.193523849076,
      "perigee_km": 484.79004089877617,
      "latitude_deg": 2.4547736148398975e-06,
      "longitude_deg": -100.64069252189792,
      "height_km": 485.1040820697756,
      "semi_major_axis_km": 6864.628782373926,
      "eccentricity": 0.0002479,
      "inclination_deg": 43.0025,
      "raan_deg": 19.5877,
      "arg_perigee_deg": 313.2167,
      "mean_anomaly_deg": 46.8477,
      "mean_motion_rev_day": 15.26430997
    },
    {
      "epoch": "2026-04-03T19:12:23.762592Z",
      "apogee_km": 488.1938670805166,
      "perigee_km": 484.78969766733644,
      "latitude_deg": 5.336354058986413e-06,
      "longitude_deg": -100.6406930589962,
      "height_km": 485.10384707054465,
      "semi_major_axis_km": 6864.628782373926,
      "eccentricity": 0.00024795,
      "inclination_deg": 43.0025,
      "raan_deg": 19.5877,
      "arg_perigee_deg": 313.2167,
      "mean_anomaly_deg": 46.8477,
      "mean_motion_rev_day": 15.26430997
    },
    {
      "epoch": "2026-04-07T03:19:30.572256Z",
      "apogee_km": 487.287023541071,
      "perigee_km": 485.3629148511054,
      "latitude_deg": 4.376105070308893e-05,
      "longitude_deg": 115.48741640235315,
      "height_km": 486.1930181997688,
      "semi_major_axis_km": 6864.461969196088,
      "eccentricity": 0.00014015,
      "inclination_deg": 43.0022,
      "raan_deg": 0.7845,
      "arg_perigee_deg": 264.5714,
      "mean_anomaly_deg": 95.4978,
      "mean_motion_rev_day": 15.26486638
    },
    {
      "epoch": "2026-04-07T17:27:19.443168Z",
      "apogee_km": 486.3621629960262,
      "perigee_km": 484.67672351981855,
      "latitude_deg": 1.7691813835228328e-05,
      "longitude_deg": -100.3666503387507,
      "height_km": 484.96719346431735,
      "semi_major_axis_km": 6863.656443257922,
      "eccentricity": 0.00012278,
      "inclination_deg": 43.0025,
      "raan_deg": 357.4644,
      "arg_perigee_deg": 292.989,
      "mean_anomaly_deg": 67.0832,
      "mean_motion_rev_day": 15.26755371
    },
    {
      "epoch": "2026-04-09T02:27:37.578528Z",
      "apogee_km": 488.28606535164727,
      "perigee_km": 486.35796984114586,
      "latitude_deg": 2.5624221644163032e-05,
      "longitude_deg": 115.46112120350875,
      "height_km": 487.2644456944115,
      "semi_major_axis_km": 6865.459017596397,
      "eccentricity": 0.00014042,
      "inclination_deg": 43.0036,
      "raan_deg": 349.7232,
      "arg_perigee_deg": 260.1316,
      "mean_anomaly_deg": 99.9377,
      "mean_motion_rev_day": 15.2615412
    },
    {
      "epoch": "2026-04-10T03:34:33.926592Z",
      "apogee_km": 488.3065692290411,
      "perigee_km": 482.3407119710191,
      "latitude_deg": 3.478945261960058e-05,
      "longitude_deg": 91.78968122485425,
      "height_km": 486.74978637466455,
      "semi_major_axis_km": 6863.46064060003,
      "eccentricity": 0.00043461,
      "inclination_deg": 43.0033,
      "raan_deg": 343.818,
      "arg_perigee_deg": 236.469,
      "mean_anomaly_deg": 123.5747,
      "mean_motion_rev_day": 15.26820705
    },
    {
      "epoch": "2026-04-11T16:00:01.998720Z",
      "apogee_km": 484.27914507700643,
      "perigee_km": 481.8612556595963,
      "latitude_deg": 41.246473696780576,
      "longitude_deg": -35.39501153973204,
      "height_km": 487.0121260153441,
      "semi_major_axis_km": 6861.207200368301,
      "eccentricity": 0.0001762,
      "inclination_deg": 43.0009,
      "raan_deg": 335.2515,
      "arg_perigee_deg": 256.7209,
      "mean_anomaly_deg": 177.8035,
      "mean_motion_rev_day": 15.27572952
    },
    {
      "epoch": "2026-04-13T06:00:02.000160Z",
      "apogee_km": 484.2477818328898,
      "perigee_km": 481.76569447417387,
      "latitude_deg": 18.80077408196274,
      "longitude_deg": -166.4298903349654,
      "height_km": 482.8240258544311,
      "semi_major_axis_km": 6861.143738153532,
      "eccentricity": 0.00018088,
      "inclination_deg": 43.0011,
      "raan_deg": 326.3095,
      "arg_perigee_deg": 268.812,
      "mean_anomaly_deg": 243.0945,
      "mean_motion_rev_day": 15.27594146
    },
    {
      "epoch": "2026-04-14T00:00:02.000160Z",
      "apogee_km": 484.32643674881547,
      "perigee_km": 481.90935387429454,
      "latitude_deg": -25.447595628315344,
      "longitude_deg": 89.3908011837647,
      "height_km": 488.64425119950357,
      "semi_major_axis_km": 6861.254895311555,
      "eccentricity": 0.00017614,
      "inclination_deg": 43.0012,
      "raan_deg": 322.0761,
      "arg_perigee_deg": 271.649,
      "mean_anomaly_deg": 49.5715,
      "mean_motion_rev_day": 15.27557024
    }
  ]
}